{
    "links": {
        "self": "http://www.neowsapp.com/rest/v1/neo/3792424?api_key=iIulBulltgU6a56xZRHN4H3l9WmuAYTsLGpBGhQ2"
    },
    "id": "3792424",
    "neo_reference_id": "3792424",
    "name": "(2017 XM61)",
    "designation": "2017 XM61",
    "nasa_jpl_url": "http://ssd.jpl.nasa.gov/sbdb.cgi?sstr=3792424",
    "absolute_magnitude_h": 25.6,
    "estimated_diameter": {
        "kilometers": {
            "estimated_diameter_min": 0.0201629919,
            "estimated_diameter_max": 0.0450858206
        },
        "meters": {
            "estimated_diameter_min": 20.1629919443,
            "estimated_diameter_max": 45.0858206172
        },
        "miles": {
            "estimated_diameter_min": 0.0125286985,
            "estimated_diameter_max": 0.0280150214
        },
        "feet": {
            "estimated_diameter_min": 66.1515504905,
            "estimated_diameter_max": 147.9193637137
        }
    },
    "is_potentially_hazardous_asteroid": false,
    "close_approach_data": [
        {
            "close_approach_date": "2017-12-02",
            "close_approach_date_full": "2017-Dec-02 07:16",
            "epoch_date_close_approach": 1512198960000,
            "relative_velocity": {
                "kilometers_per_second": "10.7889373235",
                "kilometers_per_hour": "38840.1743645665",
                "miles_per_hour": "24133.7738989163"
            },
            "miss_distance": {
                "astronomical": "0.0723107976",
                "lunar": "28.1289002664",
                "kilometers": "10817541.298961112",
                "miles": "6721708.4734108656"
            },
            "orbiting_body": "Earth"
        }
    ],
    "orbital_data": {
        "orbit_id": "1",
        "orbit_determination_date": "2017-12-17 10:12:12",
        "first_observation_date": "2017-12-14",
        "last_observation_date": "2017-12-16",
        "data_arc_in_days": 2,
        "observations_used": 18,
        "orbit_uncertainty": "9",
        "minimum_orbit_intersection": ".0538689",
        "jupiter_tisserand_invariant": "3.259",
        "epoch_osculation": "2458103.5",
        "eccentricity": ".586676488464554",
        "semi_major_axis": "2.400046053102468",
        "inclination": "7.504880620900257",
        "ascending_node_longitude": "81.70211033167303",
        "orbital_period": "1358.087618088089",
        "perihelion_distance": ".9919954625150995",
        "perihelion_argument": "318.7593045704463",
        "aphelion_distance": "3.808096643689836",
        "perihelion_time": "2458067.707927610545",
        "mean_anomaly": "9.487713376213138",
        "mean_motion": ".2650786261543323",
        "equinox": "J2000",
        "orbit_class": {
            "orbit_class_type": "APO",
            "orbit_class_description": "Near-Earth asteroid orbits which cross the Earth’s orbit similar to that of 1862 Apollo",
            "orbit_class_range": "a (semi-major axis) > 1.0 AU; q (perihelion) < 1.017 AU"
        }
    },
    "is_sentry_object": false
}